[Satellite]
VERSION=1.1
NAME=FALCONSAT-3
NICKNAME=FALCONSAT-3
TLE1=1 30776U 07006E   15054.21090655  .00011215  00000-0  48527-3 0  9998
TLE2=2 30776  35.4286 354.2726 0003318 310.4571 189.9059 15.21702464438916
